{"type": "FeatureCollection", "features": [{"type": "Feature", "geometry": {"coordinates": [121.489829, 31.240832], "type": "Point"}, "properties": {"_id": "163647112", "NAME_EN": "Glen Line Bld.", "li_shi_qu_hua_2": "161006676", "BEG_YR": null, "END_YR": null, "NAME_CN": "格林邮船大楼", "li_shi_qu_hua": "114265321"}}, {"type": "Feature", "geometry": {"coordinates": [121.491363, 31.233409], "type": "Point"}, "properties": {"_id": "163643614", "NAME_EN": "Asiatic Petroleum", "li_shi_qu_hua_2": "161006676", "BEG_YR": null, "END_YR": null, "NAME_CN": "亚细亚大楼", "li_shi_qu_hua": "114265321"}}, {"type": "Feature", "geometry": {"coordinates": [121.470862, 31.232473], "type": "Point"}, "properties": {"_id": "163299140", "NAME_EN": "Carlton Cafe", "li_shi_qu_hua_2": "161006458", "BEG_YR": null, "END_YR": null, "NAME_CN": "卡尔登咖啡馆", "li_shi_qu_hua": "114265321"}}, {"type": "Feature", "geometry": {"coordinates": [121.451935, 31.173693], "type": "Point"}, "properties": {"_id": "161370966", "NAME_EN": "Loong Hwa Pagoda", "li_shi_qu_hua_2": null, "BEG_YR": null, "END_YR": null, "NAME_CN": "龙华塔", "li_shi_qu_hua": null}}, {"type": "Feature", "geometry": {"coordinates": [121.49066, 31.236737], "type": "Point"}, "properties": {"_id": "161234752", "NAME_EN": "Customs Jetty", "li_shi_qu_hua_2": "161006676", "BEG_YR": null, "END_YR": null, "NAME_CN": "海关码头", "li_shi_qu_hua": "114265321"}}, {"type": "Feature", "geometry": {"coordinates": [121.490425, 31.237823], "type": "Point"}, "properties": {"_id": "161233898", "NAME_EN": "Bronze Statue of Hart", "li_shi_qu_hua_2": "161006676", "BEG_YR": null, "END_YR": null, "NAME_CN": "赫德铜像", "li_shi_qu_hua": "114265321"}}, {"type": "Feature", "geometry": {"coordinates": [121.492046, 31.227134], "type": "Point"}, "properties": {"_id": "161233011", "NAME_EN": "A Tea House At Woo Sing Ding", "li_shi_qu_hua_2": null, "BEG_YR": null, "END_YR": null, "NAME_CN": "湖心亭茶楼", "li_shi_qu_hua": null}}, {"type": "Feature", "geometry": {"coordinates": [121.456133, 31.22963], "type": "Point"}, "properties": {"_id": "161232459", "NAME_EN": "Majestic Hotel", "li_shi_qu_hua_2": "161006458", "BEG_YR": null, "END_YR": null, "NAME_CN": "大华饭店", "li_shi_qu_hua": "114265321"}}, {"type": "Feature", "geometry": {"coordinates": [121.489902, 31.23664], "type": "Point"}, "properties": {"_id": "161231655", "NAME_EN": "Customs House", "li_shi_qu_hua_2": "161006676", "BEG_YR": null, "END_YR": null, "NAME_CN": "海关大楼", "li_shi_qu_hua": "114265321"}}, {"type": "Feature", "geometry": {"coordinates": [121.466524, 31.235234], "type": "Point"}, "properties": {"_id": "161230864", "NAME_EN": "Sinza Market", "li_shi_qu_hua_2": "161006458", "BEG_YR": null, "END_YR": null, "NAME_CN": "新闸市场", "li_shi_qu_hua": "114265321"}}, {"type": "Feature", "geometry": {"coordinates": [121.466515, 31.230467], "type": "Point"}, "properties": {"_id": "161230092", "NAME_EN": "Italian Consulate", "li_shi_qu_hua_2": "161006458", "BEG_YR": null, "END_YR": null, "NAME_CN": "意大利领事馆", "li_shi_qu_hua": "114265321"}}, {"type": "Feature", "geometry": {"coordinates": [121.465291, 31.229732], "type": "Point"}, "properties": {"_id": "161229809", "NAME_EN": "Country Club", "li_shi_qu_hua_2": "161006458", "BEG_YR": null, "END_YR": null, "NAME_CN": "乡村总会", "li_shi_qu_hua": "114265321"}}, {"type": "Feature", "geometry": {"coordinates": [121.461626, 31.234899], "type": "Point"}, "properties": {"_id": "161229275", "NAME_EN": "Ellis Kadoorie School", "li_shi_qu_hua_2": "161006458", "BEG_YR": null, "END_YR": null, "NAME_CN": "嘉道理学堂", "li_shi_qu_hua": "114265321"}}, {"type": "Feature", "geometry": {"coordinates": [121.462903, 31.23127], "type": "Point"}, "properties": {"_id": "161228438", "NAME_EN": "Embassy Theatre", "li_shi_qu_hua_2": "161006458", "BEG_YR": null, "END_YR": null, "NAME_CN": "夏令配克大戏院", "li_shi_qu_hua": "114265321"}}, {"type": "Feature", "geometry": {"coordinates": [121.469826, 31.230587], "type": "Point"}, "properties": {"_id": "161228128", "NAME_EN": "Jewish Cemetery", "li_shi_qu_hua_2": "161006458", "BEG_YR": null, "END_YR": null, "NAME_CN": "犹太公墓", "li_shi_qu_hua": "114265321"}}, {"type": "Feature", "geometry": {"coordinates": [121.469454, 31.231344], "type": "Point"}, "properties": {"_id": "161227704", "NAME_EN": "Swiss Consulate", "li_shi_qu_hua_2": "161006458", "BEG_YR": null, "END_YR": null, "NAME_CN": "瑞士领事馆", "li_shi_qu_hua": "114265321"}}, {"type": "Feature", "geometry": {"coordinates": [121.465287, 31.239352], "type": "Point"}, "properties": {"_id": "161227421", "NAME_EN": "Sinza Water Tower", "li_shi_qu_hua_2": "161006458", "BEG_YR": null, "END_YR": null, "NAME_CN": "新闸水塔", "li_shi_qu_hua": "114265321"}}, {"type": "Feature", "geometry": {"coordinates": [121.468861, 31.235151], "type": "Point"}, "properties": {"_id": "161227138", "NAME_EN": "Fire Station", "li_shi_qu_hua_2": "161006458", "BEG_YR": null, "END_YR": null, "NAME_CN": "新闸救火会", "li_shi_qu_hua": "114265321"}}, {"type": "Feature", "geometry": {"coordinates": [121.469615, 31.235307], "type": "Point"}, "properties": {"_id": "161226807", "NAME_EN": "Sinza Police Station", "li_shi_qu_hua_2": "161006458", "BEG_YR": null, "END_YR": null, "NAME_CN": "新闸巡捕房", "li_shi_qu_hua": "114265321"}}, {"type": "Feature", "geometry": {"coordinates": [121.471009, 31.230814], "type": "Point"}, "properties": {"_id": "161226019", "NAME_EN": "Race Course", "li_shi_qu_hua_2": "161006458", "BEG_YR": null, "END_YR": null, "NAME_CN": "跑马总会", "li_shi_qu_hua": "114265321"}}, {"type": "Feature", "geometry": {"coordinates": [121.47551, 31.236122], "type": "Point"}, "properties": {"_id": "161225508", "NAME_EN": "Louza Police Station", "li_shi_qu_hua_2": "161006676", "BEG_YR": null, "END_YR": null, "NAME_CN": "老闸巡捕房", "li_shi_qu_hua": "114265321"}}, {"type": "Feature", "geometry": {"coordinates": [121.472502, 31.234299], "type": "Point"}, "properties": {"_id": "161225061", "NAME_EN": "C.U.A Bld.", "li_shi_qu_hua_2": "161006458", "BEG_YR": null, "END_YR": null, "NAME_CN": "华安大楼", "li_shi_qu_hua": "114265321"}}, {"type": "Feature", "geometry": {"coordinates": [121.473799, 31.235057], "type": "Point"}, "properties": {"_id": "161224424", "NAME_EN": "New World Theatre", "li_shi_qu_hua_2": "161006458", "BEG_YR": null, "END_YR": null, "NAME_CN": "新世界", "li_shi_qu_hua": "114265321"}}, {"type": "Feature", "geometry": {"coordinates": [121.476629, 31.235577], "type": "Point"}, "properties": {"_id": "161224063", "NAME_EN": "Sun Sun Co.", "li_shi_qu_hua_2": "161006676", "BEG_YR": null, "END_YR": null, "NAME_CN": "新新公司", "li_shi_qu_hua": "114265321"}}, {"type": "Feature", "geometry": {"coordinates": [121.477408, 31.235664], "type": "Point"}, "properties": {"_id": "161223831", "NAME_EN": "Sincere Co.", "li_shi_qu_hua_2": "161006676", "BEG_YR": null, "END_YR": null, "NAME_CN": "先施公司", "li_shi_qu_hua": "114265321"}}, {"type": "Feature", "geometry": {"coordinates": [121.478171, 31.235233], "type": "Point"}, "properties": {"_id": "161223579", "NAME_EN": "Wing On Co.", "li_shi_qu_hua_2": "161006676", "BEG_YR": null, "END_YR": null, "NAME_CN": "永安公司", "li_shi_qu_hua": "114265321"}}, {"type": "Feature", "geometry": {"coordinates": [121.475828, 31.233348], "type": "Point"}, "properties": {"_id": "161223220", "NAME_EN": "Moore Memorial Church", "li_shi_qu_hua_2": "161006676", "BEG_YR": null, "END_YR": null, "NAME_CN": "慕尔堂", "li_shi_qu_hua": "114265321"}}, {"type": "Feature", "geometry": {"coordinates": [121.484915, 31.242759], "type": "Point"}, "properties": {"_id": "161222825", "NAME_EN": "Water Tower", "li_shi_qu_hua_2": "161006676", "BEG_YR": null, "END_YR": null, "NAME_CN": "江西路水塔", "li_shi_qu_hua": "114265321"}}, {"type": "Feature", "geometry": {"coordinates": [121.472053, 31.23926], "type": "Point"}, "properties": {"_id": "161222019", "NAME_EN": "Gas Works", "li_shi_qu_hua_2": "161006458", "BEG_YR": null, "END_YR": null, "NAME_CN": "煤气公司", "li_shi_qu_hua": "114265321"}}, {"type": "Feature", "geometry": {"coordinates": [121.481894, 31.244095], "type": "Point"}, "properties": {"_id": "161218850", "NAME_EN": "Temple of Heaven", "li_shi_qu_hua_2": "161006899", "BEG_YR": null, "END_YR": null, "NAME_CN": "天后宫", "li_shi_qu_hua": "114265321"}}, {"type": "Feature", "geometry": {"coordinates": [121.477964, 31.246888], "type": "Point"}, "properties": {"_id": "161218602", "NAME_EN": "West Police Station", "li_shi_qu_hua_2": "161006899", "BEG_YR": null, "END_YR": null, "NAME_CN": "汇司巡捕房", "li_shi_qu_hua": "114265321"}}, {"type": "Feature", "geometry": {"coordinates": [121.476361, 31.250066], "type": "Point"}, "properties": {"_id": "161216661", "NAME_EN": "Shanghai Naking Raiway Station", "li_shi_qu_hua_2": "161006899", "BEG_YR": null, "END_YR": null, "NAME_CN": "沪宁车站", "li_shi_qu_hua": "114265321"}}, {"type": "Feature", "geometry": {"coordinates": [121.487979, 31.253383], "type": "Point"}, "properties": {"_id": "161216390", "NAME_EN": "Hongkew Fire Station", "li_shi_qu_hua_2": "161006899", "BEG_YR": null, "END_YR": null, "NAME_CN": "虹口救火会", "li_shi_qu_hua": "114265321"}}, {"type": "Feature", "geometry": {"coordinates": [121.486824, 31.248895], "type": "Point"}, "properties": {"_id": "161216124", "NAME_EN": "Quinsan Square", "li_shi_qu_hua_2": "161006899", "BEG_YR": null, "END_YR": null, "NAME_CN": "昆山公园", "li_shi_qu_hua": "114265321"}}, {"type": "Feature", "geometry": {"coordinates": [121.499017, 31.249076], "type": "Point"}, "properties": {"_id": "161215338", "NAME_EN": "StAndrew's Church", "li_shi_qu_hua_2": "161006258", "BEG_YR": null, "END_YR": null, "NAME_CN": "圣安德烈堂", "li_shi_qu_hua": "114265321"}}, {"type": "Feature", "geometry": {"coordinates": [121.503805, 31.250981], "type": "Point"}, "properties": {"_id": "161214901", "NAME_EN": "Nanyang Bros Tobacco co.", "li_shi_qu_hua_2": "161006258", "BEG_YR": null, "END_YR": null, "NAME_CN": "南洋兄弟烟草公司", "li_shi_qu_hua": "114265321"}}, {"type": "Feature", "geometry": {"coordinates": [121.508886, 31.253241], "type": "Point"}, "properties": {"_id": "161214002", "NAME_EN": "Wayside Police Station", "li_shi_qu_hua_2": "161006258", "BEG_YR": null, "END_YR": null, "NAME_CN": "汇山巡捕房", "li_shi_qu_hua": "114265321"}}, {"type": "Feature", "geometry": {"coordinates": [121.511219, 31.253724], "type": "Point"}, "properties": {"_id": "161213702", "NAME_EN": "Studley Park", "li_shi_qu_hua_2": "161006258", "BEG_YR": null, "END_YR": null, "NAME_CN": "斯塔德利公园", "li_shi_qu_hua": "114265321"}}, {"type": "Feature", "geometry": {"coordinates": [121.513887, 31.250166], "type": "Point"}, "properties": {"_id": "161212607", "NAME_EN": "O.S.K Yang Tsie Poo Wharf", "li_shi_qu_hua_2": "161006258", "BEG_YR": null, "END_YR": null, "NAME_CN": "大阪商船码头", "li_shi_qu_hua": "114265321"}}, {"type": "Feature", "geometry": {"coordinates": [121.510739, 31.25023], "type": "Point"}, "properties": {"_id": "161212353", "NAME_EN": "Nippon Yusen Kaisha Wayside Wharf", "li_shi_qu_hua_2": "161006258", "BEG_YR": null, "END_YR": null, "NAME_CN": "汇山码头", "li_shi_qu_hua": "114265321"}}, {"type": "Feature", "geometry": {"coordinates": [121.508725, 31.25012], "type": "Point"}, "properties": {"_id": "161211540", "NAME_EN": "Shanghai & Hongkew  Wharf", "li_shi_qu_hua_2": "161006258", "BEG_YR": null, "END_YR": null, "NAME_CN": "华顺码头", "li_shi_qu_hua": "114265321"}}, {"type": "Feature", "geometry": {"coordinates": [121.505254, 31.249606], "type": "Point"}, "properties": {"_id": "161211247", "NAME_EN": "China Merchant Lower Wharf", "li_shi_qu_hua_2": "161006258", "BEG_YR": null, "END_YR": null, "NAME_CN": "招商局北码头", "li_shi_qu_hua": "114265321"}}, {"type": "Feature", "geometry": {"coordinates": [121.501269, 31.248378], "type": "Point"}, "properties": {"_id": "161210795", "NAME_EN": "Shanghai & Hongkew  Wharf", "li_shi_qu_hua_2": "161006258", "BEG_YR": null, "END_YR": null, "NAME_CN": "公和祥码头", "li_shi_qu_hua": "114265321"}}, {"type": "Feature", "geometry": {"coordinates": [121.498318, 31.247232], "type": "Point"}, "properties": {"_id": "161210144", "NAME_EN": "Shanghai & Hongkew  Wharf Hunt's Wharf", "li_shi_qu_hua_2": "161006258", "BEG_YR": null, "END_YR": null, "NAME_CN": "顺泰码头", "li_shi_qu_hua": "114265321"}}, {"type": "Feature", "geometry": {"coordinates": [121.496562, 31.246468], "type": "Point"}, "properties": {"_id": "161209457", "NAME_EN": "China Merchant Central Wharf", "li_shi_qu_hua_2": "161006258", "BEG_YR": null, "END_YR": null, "NAME_CN": "招商中栈", "li_shi_qu_hua": "114265321"}}, {"type": "Feature", "geometry": {"coordinates": [121.493545, 31.244619], "type": "Point"}, "properties": {"_id": "161208110", "NAME_EN": "N.Y.K Wharf ", "li_shi_qu_hua_2": "161006899", "BEG_YR": null, "END_YR": null, "NAME_CN": "日本邮船码头", "li_shi_qu_hua": "114265321"}}, {"type": "Feature", "geometry": {"coordinates": [121.490369, 31.247667], "type": "Point"}, "properties": {"_id": "161207437", "NAME_EN": "Hongkew Police Station", "li_shi_qu_hua_2": "161006899", "BEG_YR": null, "END_YR": null, "NAME_CN": "虹口巡捕房", "li_shi_qu_hua": "114265321"}}, {"type": "Feature", "geometry": {"coordinates": [121.490737, 31.248337], "type": "Point"}, "properties": {"_id": "161206747", "NAME_EN": "Hongkew Market", "li_shi_qu_hua_2": "161006899", "BEG_YR": null, "END_YR": null, "NAME_CN": "虹口市场", "li_shi_qu_hua": "114265321"}}, {"type": "Feature", "geometry": {"coordinates": [121.489171, 31.247878], "type": "Point"}, "properties": {"_id": "161206293", "NAME_EN": "Japanese Club", "li_shi_qu_hua_2": "161006899", "BEG_YR": null, "END_YR": null, "NAME_CN": "日本总会", "li_shi_qu_hua": "114265321"}}, {"type": "Feature", "geometry": {"coordinates": [121.492249, 31.243856], "type": "Point"}, "properties": {"_id": "161205487", "NAME_EN": "American Consulate ", "li_shi_qu_hua_2": "161006899", "BEG_YR": null, "END_YR": null, "NAME_CN": "美国领事馆", "li_shi_qu_hua": "114265321"}}, {"type": "Feature", "geometry": {"coordinates": [121.492586, 31.244131], "type": "Point"}, "properties": {"_id": "161205159", "NAME_EN": "Japanese Consulate ", "li_shi_qu_hua_2": "161006899", "BEG_YR": null, "END_YR": null, "NAME_CN": "日本领事馆", "li_shi_qu_hua": "114265321"}}, {"type": "Feature", "geometry": {"coordinates": [121.491633, 31.243686], "type": "Point"}, "properties": {"_id": "161204942", "NAME_EN": "German Consulate ", "li_shi_qu_hua_2": "161006899", "BEG_YR": null, "END_YR": null, "NAME_CN": "德国领事馆", "li_shi_qu_hua": "114265321"}}, {"type": "Feature", "geometry": {"coordinates": [121.49086, 31.244204], "type": "Point"}, "properties": {"_id": "161197313", "NAME_EN": "Astor House", "li_shi_qu_hua_2": "161006899", "BEG_YR": null, "END_YR": null, "NAME_CN": "礼查饭店", "li_shi_qu_hua": "114265321"}}, {"type": "Feature", "geometry": {"coordinates": [121.490868, 31.243791], "type": "Point"}, "properties": {"_id": "161197028", "NAME_EN": "U.S.S.R Consulate ", "li_shi_qu_hua_2": "161006899", "BEG_YR": null, "END_YR": null, "NAME_CN": "俄国领事馆", "li_shi_qu_hua": "114265321"}}, {"type": "Feature", "geometry": {"coordinates": [121.486675, 31.244936], "type": "Point"}, "properties": {"_id": "161196118", "NAME_EN": "General Hospital", "li_shi_qu_hua_2": "161006899", "BEG_YR": null, "END_YR": null, "NAME_CN": "公济医院", "li_shi_qu_hua": "114265321"}}, {"type": "Feature", "geometry": {"coordinates": [121.485289, 31.244551], "type": "Point"}, "properties": {"_id": "161195826", "NAME_EN": "Post Office", "li_shi_qu_hua_2": "161006899", "BEG_YR": null, "END_YR": null, "NAME_CN": "邮政总局", "li_shi_qu_hua": "114265321"}}, {"type": "Feature", "geometry": {"coordinates": [121.486345, 31.242601], "type": "Point"}, "properties": {"_id": "161195606", "NAME_EN": "Navy Y.M.C.A", "li_shi_qu_hua_2": "161006676", "BEG_YR": null, "END_YR": null, "NAME_CN": "海军基督教青年会", "li_shi_qu_hua": "114265321"}}, {"type": "Feature", "geometry": {"coordinates": [121.48829, 31.243184], "type": "Point"}, "properties": {"_id": "161195172", "NAME_EN": "Union Church", "li_shi_qu_hua_2": "161006676", "BEG_YR": null, "END_YR": null, "NAME_CN": "联合教堂", "li_shi_qu_hua": "114265321"}}, {"type": "Feature", "geometry": {"coordinates": [121.490829, 31.241996], "type": "Point"}, "properties": {"_id": "161194946", "NAME_EN": "Public Garden", "li_shi_qu_hua_2": "161006676", "BEG_YR": null, "END_YR": null, "NAME_CN": "外滩花园", "li_shi_qu_hua": "114265321"}}, {"type": "Feature", "geometry": {"coordinates": [121.490183, 31.243364], "type": "Point"}, "properties": {"_id": "161194685", "NAME_EN": "Garden Bridge", "li_shi_qu_hua_2": "161006676", "BEG_YR": null, "END_YR": null, "NAME_CN": "花园桥", "li_shi_qu_hua": "114265321"}}, {"type": "Feature", "geometry": {"coordinates": [121.488701, 31.242282], "type": "Point"}, "properties": {"_id": "161194457", "NAME_EN": "British Consulate ", "li_shi_qu_hua_2": "161006676", "BEG_YR": null, "END_YR": null, "NAME_CN": "英国领事馆", "li_shi_qu_hua": "114265321"}}, {"type": "Feature", "geometry": {"coordinates": [121.489849, 31.241085], "type": "Point"}, "properties": {"_id": "161194131", "NAME_EN": "Bank of  L'Indochine", "li_shi_qu_hua_2": "161006676", "BEG_YR": null, "END_YR": null, "NAME_CN": "东方汇理银行", "li_shi_qu_hua": "114265321"}}, {"type": "Feature", "geometry": {"coordinates": [121.489348, 31.241586], "type": "Point"}, "properties": {"_id": "161193421", "NAME_EN": "Masonic Club", "li_shi_qu_hua_2": "161006676", "BEG_YR": null, "END_YR": null, "NAME_CN": "共济会会所", "li_shi_qu_hua": "114265321"}}, {"type": "Feature", "geometry": {"coordinates": [121.489823, 31.240546], "type": "Point"}, "properties": {"_id": "161192303", "NAME_EN": "Ewo Bld.", "li_shi_qu_hua_2": "161006676", "BEG_YR": null, "END_YR": null, "NAME_CN": "怡和大楼", "li_shi_qu_hua": "114265321"}}, {"type": "Feature", "geometry": {"coordinates": [121.489821, 31.240281], "type": "Point"}, "properties": {"_id": "161191960", "NAME_EN": "Yangtsze Bld.", "li_shi_qu_hua_2": "161006676", "BEG_YR": null, "END_YR": null, "NAME_CN": "扬子大楼", "li_shi_qu_hua": "114265321"}}, {"type": "Feature", "geometry": {"coordinates": [121.489674, 31.239855], "type": "Point"}, "properties": {"_id": "161190271", "NAME_EN": "Yokonama Specie Bank", "li_shi_qu_hua_2": "161006676", "BEG_YR": null, "END_YR": null, "NAME_CN": "横滨正金银行", "li_shi_qu_hua": "114265321"}}, {"type": "Feature", "geometry": {"coordinates": [121.489634, 31.239498], "type": "Point"}, "properties": {"_id": "161189663", "NAME_EN": "Bank of China", "li_shi_qu_hua_2": "161006676", "BEG_YR": null, "END_YR": null, "NAME_CN": "中国银行", "li_shi_qu_hua": "114265321"}}, {"type": "Feature", "geometry": {"coordinates": [121.489503, 31.238692], "type": "Point"}, "properties": {"_id": "161189364", "NAME_EN": "Palace Hotel", "li_shi_qu_hua_2": "161006676", "BEG_YR": null, "END_YR": null, "NAME_CN": "汇中饭店", "li_shi_qu_hua": "114265321"}}, {"type": "Feature", "geometry": {"coordinates": [121.489571, 31.238454], "type": "Point"}, "properties": {"_id": "161188366", "NAME_EN": "Chartered Bank", "li_shi_qu_hua_2": "161006676", "BEG_YR": null, "END_YR": null, "NAME_CN": "麦佳利银行", "li_shi_qu_hua": "114265321"}}, {"type": "Feature", "geometry": {"coordinates": [121.489555, 31.238165], "type": "Point"}, "properties": {"_id": "161187741", "NAME_EN": "North China Daily News", "li_shi_qu_hua_2": "161006676", "BEG_YR": null, "END_YR": null, "NAME_CN": "字林西报", "li_shi_qu_hua": "114265321"}}, {"type": "Feature", "geometry": {"coordinates": [121.489588, 31.23792], "type": "Point"}, "properties": {"_id": "161187370", "NAME_EN": "Bark of Taiwan", "li_shi_qu_hua_2": "161006676", "BEG_YR": null, "END_YR": null, "NAME_CN": "台湾银行", "li_shi_qu_hua": "114265321"}}, {"type": "Feature", "geometry": {"coordinates": [121.487151, 31.236522], "type": "Point"}, "properties": {"_id": "161187138", "NAME_EN": "Telephone Co.", "li_shi_qu_hua_2": "161006676", "BEG_YR": null, "END_YR": null, "NAME_CN": "德律风公司", "li_shi_qu_hua": "114265321"}}, {"type": "Feature", "geometry": {"coordinates": [121.486205, 31.2365], "type": "Point"}, "properties": {"_id": "161186877", "NAME_EN": "Holy Trinity Cathedtal", "li_shi_qu_hua_2": "161006676", "BEG_YR": null, "END_YR": null, "NAME_CN": "圣三一堂", "li_shi_qu_hua": "114265321"}}, {"type": "Feature", "geometry": {"coordinates": [121.486552, 31.2354], "type": "Point"}, "properties": {"_id": "161186586", "NAME_EN": "Municipal Building", "li_shi_qu_hua_2": "161006676", "BEG_YR": null, "END_YR": null, "NAME_CN": "工部局大楼", "li_shi_qu_hua": "114265321"}}, {"type": "Feature", "geometry": {"coordinates": [121.486459, 31.234561], "type": "Point"}, "properties": {"_id": "161186238", "NAME_EN": "American Club", "li_shi_qu_hua_2": "161006676", "BEG_YR": null, "END_YR": null, "NAME_CN": "美国总会", "li_shi_qu_hua": "114265321"}}, {"type": "Feature", "geometry": {"coordinates": [121.48999, 31.236007], "type": "Point"}, "properties": {"_id": "161185731", "NAME_EN": "H.&S. Bank", "li_shi_qu_hua_2": "161006676", "BEG_YR": null, "END_YR": null, "NAME_CN": "汇丰银行", "li_shi_qu_hua": "114265321"}}, {"type": "Feature", "geometry": {"coordinates": [121.490075, 31.23385], "type": "Point"}, "properties": {"_id": "161185352", "NAME_EN": "Robert Dollar Bld.", "li_shi_qu_hua_2": "161006676", "BEG_YR": null, "END_YR": null, "NAME_CN": "大来大楼", "li_shi_qu_hua": "114265321"}}, {"type": "Feature", "geometry": {"coordinates": [121.490776, 31.234071], "type": "Point"}, "properties": {"_id": "161184669", "NAME_EN": "Canadian Pacific", "li_shi_qu_hua_2": "161006676", "BEG_YR": null, "END_YR": null, "NAME_CN": "联合大楼", "li_shi_qu_hua": "114265321"}}, {"type": "Feature", "geometry": {"coordinates": [121.49072, 31.233232], "type": "Point"}, "properties": {"_id": "161184283", "NAME_EN": "Telegraph Co.", "li_shi_qu_hua_2": "161006676", "BEG_YR": null, "END_YR": null, "NAME_CN": "电报公司", "li_shi_qu_hua": "114265321"}}, {"type": "Feature", "geometry": {"coordinates": [121.490993, 31.233774], "type": "Point"}, "properties": {"_id": "161184025", "NAME_EN": "Shanghai Club", "li_shi_qu_hua_2": "161006676", "BEG_YR": null, "END_YR": null, "NAME_CN": "上海总会", "li_shi_qu_hua": "114265321"}}, {"type": "Feature", "geometry": {"coordinates": [121.485995, 31.230472], "type": "Point"}, "properties": {"_id": "161183400", "NAME_EN": "French Municipaltiy", "li_shi_qu_hua_2": "161008143", "BEG_YR": null, "END_YR": null, "NAME_CN": "法国公董局", "li_shi_qu_hua": "114265222"}}, {"type": "Feature", "geometry": {"coordinates": [121.492385, 31.232003], "type": "Point"}, "properties": {"_id": "161182597", "NAME_EN": "French Consulate ", "li_shi_qu_hua_2": "161008143", "BEG_YR": null, "END_YR": null, "NAME_CN": "法国领事馆", "li_shi_qu_hua": "114265222"}}, {"type": "Feature", "geometry": {"coordinates": [121.492236, 31.233445], "type": "Point"}, "properties": {"_id": "161182319", "NAME_EN": "War Memorial", "li_shi_qu_hua_2": "161006676", "BEG_YR": null, "END_YR": null, "NAME_CN": "一战纪念碑", "li_shi_qu_hua": "114265321"}}, {"type": "Feature", "geometry": {"coordinates": [121.492474, 31.232991], "type": "Point"}, "properties": {"_id": "161182052", "NAME_EN": "French Signal Station", "li_shi_qu_hua_2": "161008143", "BEG_YR": null, "END_YR": null, "NAME_CN": "法国信号站", "li_shi_qu_hua": "114265222"}}, {"type": "Feature", "geometry": {"coordinates": [121.493017, 31.231507], "type": "Point"}, "properties": {"_id": "161181687", "NAME_EN": "China Navigation Company", "li_shi_qu_hua_2": "161008143", "BEG_YR": null, "END_YR": null, "NAME_CN": "太古轮船公司", "li_shi_qu_hua": "114265222"}}, {"type": "Feature", "geometry": {"coordinates": [121.490021, 31.23064], "type": "Point"}, "properties": {"_id": "161181106", "NAME_EN": "ST Joseph's Church", "li_shi_qu_hua_2": "161008143", "BEG_YR": null, "END_YR": null, "NAME_CN": "圣若瑟堂", "li_shi_qu_hua": "114265222"}}, {"type": "Feature", "geometry": {"coordinates": [121.485676, 31.225527], "type": "Point"}, "properties": {"_id": "161179861", "NAME_EN": "Sin Wo Tao Theatre", "li_shi_qu_hua_2": null, "BEG_YR": null, "END_YR": null, "NAME_CN": "新舞台", "li_shi_qu_hua": null}}, {"type": "Feature", "geometry": {"coordinates": [121.478915, 31.228433], "type": "Point"}, "properties": {"_id": "161179632", "NAME_EN": "Great World", "li_shi_qu_hua_2": "161008143", "BEG_YR": null, "END_YR": null, "NAME_CN": "大世界", "li_shi_qu_hua": "114265222"}}, {"type": "Feature", "geometry": {"coordinates": [121.480859, 31.226192], "type": "Point"}, "properties": {"_id": "161179356", "NAME_EN": "Franco-Chinese School", "li_shi_qu_hua_2": "161008143", "BEG_YR": null, "END_YR": null, "NAME_CN": "中法学堂", "li_shi_qu_hua": "114265222"}}, {"type": "Feature", "geometry": {"coordinates": [121.478421, 31.224586], "type": "Point"}, "properties": {"_id": "161178419", "NAME_EN": "Empire Theatre", "li_shi_qu_hua_2": "161008600", "BEG_YR": 1922, "END_YR": null, "NAME_CN": "恩派亚大戏院", "li_shi_qu_hua": "114265222"}}, {"type": "Feature", "geometry": {"coordinates": [121.477368, 31.222906], "type": "Point"}, "properties": {"_id": "161178162", "NAME_EN": "French Cemetery", "li_shi_qu_hua_2": "161008600", "BEG_YR": null, "END_YR": null, "NAME_CN": "法国墓地", "li_shi_qu_hua": "114265222"}}, {"type": "Feature", "geometry": {"coordinates": [121.476523, 31.223736], "type": "Point"}, "properties": {"_id": "161176911", "NAME_EN": "French Fire Station", "li_shi_qu_hua_2": "161008600", "BEG_YR": null, "END_YR": null, "NAME_CN": "法国救火会", "li_shi_qu_hua": "114265222"}}, {"type": "Feature", "geometry": {"coordinates": [121.476009, 31.223596], "type": "Point"}, "properties": {"_id": "161176333", "NAME_EN": "French Polic Station", "li_shi_qu_hua_2": "161008600", "BEG_YR": null, "END_YR": null, "NAME_CN": "法国巡捕房", "li_shi_qu_hua": "114265222"}}, {"type": "Feature", "geometry": {"coordinates": [121.472425, 31.223456], "type": "Point"}, "properties": {"_id": "161174980", "NAME_EN": "International Institute", "li_shi_qu_hua_2": "161008600", "BEG_YR": 1926, "END_YR": 1928, "NAME_CN": "尚贤堂", "li_shi_qu_hua": "114265222"}}, {"type": "Feature", "geometry": {"coordinates": [121.469657, 31.220831], "type": "Point"}, "properties": {"_id": "161173455", "NAME_EN": "Russian Ex-Officers Club", "li_shi_qu_hua_2": "161006005", "BEG_YR": null, "END_YR": null, "NAME_CN": "俄国退伍军官总会", "li_shi_qu_hua": "114265222"}}, {"type": "Feature", "geometry": {"coordinates": [121.46869, 31.218851], "type": "Point"}, "properties": {"_id": "161173219", "NAME_EN": "French Municipal School", "li_shi_qu_hua_2": "161006005", "BEG_YR": 1926, "END_YR": null, "NAME_CN": "法国学堂", "li_shi_qu_hua": "114265222"}}, {"type": "Feature", "geometry": {"coordinates": [121.468903, 31.217345], "type": "Point"}, "properties": {"_id": "161171297", "NAME_EN": "French Park", "li_shi_qu_hua_2": "161006005", "BEG_YR": null, "END_YR": null, "NAME_CN": "法国公园", "li_shi_qu_hua": "114265222"}}, {"type": "Feature", "geometry": {"coordinates": [121.468331, 31.220929], "type": "Point"}, "properties": {"_id": "160950499", "NAME_EN": "Peacock Theatre", "li_shi_qu_hua_2": "161006005", "BEG_YR": 1927, "END_YR": 1930, "NAME_CN": "孔雀大戏院", "li_shi_qu_hua": "114265222"}}]}