{"type": "FeatureCollection", "features": [{"type": "Feature", "geometry": {"type": "Point", "coordinates": [121.441701, 31.21822]}, "properties": {"_id": "165647421", "NAME_CN": "宏恩医院", "li_shi_qu_hua_2": null, "NAME_EN": "Country Hospital", "END_YR": null, "li_shi_qu_hua": null, "BEG_YR": null}}, {"type": "Feature", "geometry": {"type": "Point", "coordinates": [121.484105, 31.260533]}, "properties": {"_id": "165647134", "NAME_CN": "日本学校", "li_shi_qu_hua_2": null, "NAME_EN": "Japanese Public School", "END_YR": null, "li_shi_qu_hua": null, "BEG_YR": null}}, {"type": "Feature", "geometry": {"coordinates": [121.471874, 31.233819], "type": "Point"}, "properties": {"_id": "165646620", "NAME_CN": "西侨青年会", "li_shi_qu_hua_2": null, "NAME_EN": "Foreign Y.M.C.A. ", "END_YR": null, "li_shi_qu_hua": null, "BEG_YR": null}}, {"type": "Feature", "geometry": {"type": "Point", "coordinates": [121.489664, 31.239155]}, "properties": {"_id": "165646323", "NAME_CN": "沙逊大楼", "li_shi_qu_hua_2": null, "NAME_EN": "Sassoon Building", "END_YR": null, "li_shi_qu_hua": null, "BEG_YR": null}}, {"type": "Feature", "geometry": {"type": "Point", "coordinates": [121.465291, 31.229732]}, "properties": {"_id": "165646067", "NAME_CN": "乡村总会", "li_shi_qu_hua_2": null, "NAME_EN": "Country Club", "END_YR": null, "li_shi_qu_hua": null, "BEG_YR": null}}, {"type": "Feature", "geometry": {"coordinates": [121.487617, 31.243374], "type": "Point"}, "properties": {"_id": "165645362", "NAME_CN": "光陆大戏院", "li_shi_qu_hua_2": null, "NAME_EN": "Capitol Theatre", "END_YR": null, "li_shi_qu_hua": null, "BEG_YR": null}}, {"type": "Feature", "geometry": {"type": "Point", "coordinates": [121.489588, 31.23792]}, "properties": {"_id": "165645106", "NAME_CN": "台湾银行", "li_shi_qu_hua_2": null, "NAME_EN": "Bark of Taiwan", "END_YR": null, "li_shi_qu_hua": null, "BEG_YR": null}}, {"type": "Feature", "geometry": {"type": "Point", "coordinates": [121.489902, 31.23664]}, "properties": {"_id": "165644700", "NAME_CN": "海关大楼", "li_shi_qu_hua_2": null, "NAME_EN": "Chinese Maritime Customs", "END_YR": null, "li_shi_qu_hua": null, "BEG_YR": null}}, {"type": "Feature", "geometry": {"coordinates": [121.493592, 31.23063], "type": "Point"}, "properties": {"_id": "165644110", "NAME_CN": "太古大楼", "li_shi_qu_hua_2": null, "NAME_EN": "Butterfield Swire", "END_YR": null, "li_shi_qu_hua": null, "BEG_YR": null}}, {"type": "Feature", "geometry": {"type": "Point", "coordinates": [121.427542, 31.208511]}, "properties": {"_id": "165643850", "NAME_CN": "哥伦比亚总会", "li_shi_qu_hua_2": null, "NAME_EN": "Columbia Country Club", "END_YR": null, "li_shi_qu_hua": null, "BEG_YR": null}}, {"type": "Feature", "geometry": {"type": "Point", "coordinates": [121.495291, 31.303147]}, "properties": {"_id": "165643586", "NAME_CN": "江湾跑马场", "li_shi_qu_hua_2": null, "NAME_EN": "Kiangwan Race Course", "END_YR": null, "li_shi_qu_hua": null, "BEG_YR": null}}, {"type": "Feature", "geometry": {"type": "Point", "coordinates": [121.459995, 31.219831]}, "properties": {"_id": "165643298", "NAME_CN": "法国球场总会", "li_shi_qu_hua_2": null, "NAME_EN": "Cercle Sport of Français", "END_YR": null, "li_shi_qu_hua": null, "BEG_YR": null}}, {"type": "Feature", "geometry": {"type": "Point", "coordinates": [121.451935, 31.173693]}, "properties": {"_id": "165642966", "NAME_CN": "龙华塔", "li_shi_qu_hua_2": null, "NAME_EN": "Loong Hwa Pagoda", "END_YR": null, "li_shi_qu_hua": null, "BEG_YR": null}}, {"type": "Feature", "geometry": {"type": "Point", "coordinates": [121.485289, 31.244551]}, "properties": {"_id": "165642710", "NAME_CN": "邮政总局", "li_shi_qu_hua_2": null, "NAME_EN": "Chinese Post Office", "END_YR": null, "li_shi_qu_hua": null, "BEG_YR": null}}, {"type": "Feature", "geometry": {"type": "Point", "coordinates": [121.492046, 31.227134]}, "properties": {"_id": "165642441", "NAME_CN": "湖心亭茶楼", "li_shi_qu_hua_2": null, "NAME_EN": "Chinese Tea House", "END_YR": null, "li_shi_qu_hua": null, "BEG_YR": null}}, {"type": "Feature", "geometry": {"type": "Point", "coordinates": [121.448207, 31.206105]}, "properties": {"_id": "165642181", "NAME_CN": "国际礼拜堂", "li_shi_qu_hua_2": null, "NAME_EN": "American Community Church", "END_YR": null, "li_shi_qu_hua": null, "BEG_YR": null}}, {"type": "Feature", "geometry": {"type": "Point", "coordinates": [121.456133, 31.22963]}, "properties": {"_id": "165641841", "NAME_CN": "大华饭店", "li_shi_qu_hua_2": null, "NAME_EN": "Majestic Hotel", "END_YR": null, "li_shi_qu_hua": null, "BEG_YR": null}}, {"type": "Feature", "geometry": {"type": "Point", "coordinates": [121.476629, 31.235577]}, "properties": {"_id": "165641585", "NAME_CN": "新新公司", "li_shi_qu_hua_2": null, "NAME_EN": "Sun Sun", "END_YR": null, "li_shi_qu_hua": null, "BEG_YR": null}}, {"type": "Feature", "geometry": {"type": "Point", "coordinates": [121.477408, 31.235664]}, "properties": {"_id": "165641325", "NAME_CN": "先施公司", "li_shi_qu_hua_2": null, "NAME_EN": "Sincere", "END_YR": null, "li_shi_qu_hua": null, "BEG_YR": null}}, {"type": "Feature", "geometry": {"type": "Point", "coordinates": [121.478171, 31.235233]}, "properties": {"_id": "165641065", "NAME_CN": "永安公司", "li_shi_qu_hua_2": null, "NAME_EN": "Wing On", "END_YR": null, "li_shi_qu_hua": null, "BEG_YR": null}}, {"type": "Feature", "geometry": {"type": "Point", "coordinates": [121.471009, 31.230814]}, "properties": {"_id": "165640805", "NAME_CN": "跑马总会", "li_shi_qu_hua_2": null, "NAME_EN": "Race Club", "END_YR": null, "li_shi_qu_hua": null, "BEG_YR": null}}, {"type": "Feature", "geometry": {"type": "Point", "coordinates": [121.487517, 31.241561]}, "properties": {"_id": "165640538", "NAME_CN": "阿哈龙会堂", "li_shi_qu_hua_2": null, "NAME_EN": "Beth Aharon Synagogue", "END_YR": null, "li_shi_qu_hua": null, "BEG_YR": null}}, {"type": "Feature", "geometry": {"type": "Point", "coordinates": [121.486205, 31.2365]}, "properties": {"_id": "165640085", "NAME_CN": "圣三一堂", "li_shi_qu_hua_2": null, "NAME_EN": "Holy Trinity Cathedtal", "END_YR": null, "li_shi_qu_hua": null, "BEG_YR": null}}, {"type": "Feature", "geometry": {"type": "Point", "coordinates": [121.492249, 31.243856]}, "properties": {"_id": "165639829", "NAME_CN": "美国领事馆", "li_shi_qu_hua_2": null, "NAME_EN": "American Consulate ", "END_YR": null, "li_shi_qu_hua": null, "BEG_YR": null}}, {"type": "Feature", "geometry": {"type": "Point", "coordinates": [121.49086, 31.244204]}, "properties": {"_id": "165639565", "NAME_CN": "礼查饭店", "li_shi_qu_hua_2": null, "NAME_EN": "Astor House Hotel", "END_YR": null, "li_shi_qu_hua": null, "BEG_YR": null}}, {"type": "Feature", "geometry": {"type": "Point", "coordinates": [121.489829, 31.240832]}, "properties": {"_id": "165639309", "NAME_CN": "格林邮船大楼", "li_shi_qu_hua_2": null, "NAME_EN": "Glen Line", "END_YR": null, "li_shi_qu_hua": null, "BEG_YR": null}}, {"type": "Feature", "geometry": {"type": "Point", "coordinates": [121.489823, 31.240546]}, "properties": {"_id": "165638914", "NAME_CN": "怡和大楼", "li_shi_qu_hua_2": null, "NAME_EN": "Jardine Matheson", "END_YR": null, "li_shi_qu_hua": null, "BEG_YR": null}}, {"type": "Feature", "geometry": {"type": "Point", "coordinates": [121.489634, 31.239498]}, "properties": {"_id": "165638532", "NAME_CN": "中国银行", "li_shi_qu_hua_2": null, "NAME_EN": "Bank of China", "END_YR": null, "li_shi_qu_hua": null, "BEG_YR": null}}, {"type": "Feature", "geometry": {"type": "Point", "coordinates": [121.488701, 31.242282]}, "properties": {"_id": "165638272", "NAME_CN": "英国领事馆", "li_shi_qu_hua_2": null, "NAME_EN": "British Consulate", "END_YR": null, "li_shi_qu_hua": null, "BEG_YR": null}}, {"type": "Feature", "geometry": {"type": "Point", "coordinates": [121.489674, 31.239855]}, "properties": {"_id": "165637994", "NAME_CN": "横滨正金银行", "li_shi_qu_hua_2": null, "NAME_EN": "Yokonama Specie Bank", "END_YR": null, "li_shi_qu_hua": null, "BEG_YR": null}}, {"type": "Feature", "geometry": {"type": "Point", "coordinates": [121.489555, 31.238165]}, "properties": {"_id": "165637734", "NAME_CN": "字林西报", "li_shi_qu_hua_2": null, "NAME_EN": "North China Daily News", "END_YR": null, "li_shi_qu_hua": null, "BEG_YR": null}}, {"type": "Feature", "geometry": {"type": "Point", "coordinates": [121.489503, 31.238692]}, "properties": {"_id": "165637460", "NAME_CN": "汇中饭店", "li_shi_qu_hua_2": null, "NAME_EN": "Palace Hotel", "END_YR": null, "li_shi_qu_hua": null, "BEG_YR": null}}, {"type": "Feature", "geometry": {"coordinates": [121.491363, 31.233409], "type": "Point"}, "properties": {"_id": "165637177", "NAME_CN": "亚细亚大楼", "li_shi_qu_hua_2": null, "NAME_EN": "Asiatic Petroleum", "END_YR": null, "li_shi_qu_hua": null, "BEG_YR": null}}, {"type": "Feature", "geometry": {"type": "Point", "coordinates": [121.492236, 31.233445]}, "properties": {"_id": "165636866", "NAME_CN": "一战纪念碑", "li_shi_qu_hua_2": null, "NAME_EN": "Shanghai's War Memorial", "END_YR": null, "li_shi_qu_hua": null, "BEG_YR": null}}, {"type": "Feature", "geometry": {"coordinates": [121.492474, 31.232991], "type": "Point"}, "properties": {"_id": "165636309", "NAME_CN": "外滩信号塔", "li_shi_qu_hua_2": null, "NAME_EN": "Time Ball Tower", "END_YR": null, "li_shi_qu_hua": null, "BEG_YR": null}}, {"type": "Feature", "geometry": {"type": "Point", "coordinates": [121.490993, 31.233774]}, "properties": {"_id": "165636034", "NAME_CN": "上海总会", "li_shi_qu_hua_2": null, "NAME_EN": "Shanghai Club", "END_YR": null, "li_shi_qu_hua": null, "BEG_YR": null}}, {"type": "Feature", "geometry": {"coordinates": [121.48999, 31.236007], "type": "Point"}, "properties": {"_id": "165635747", "NAME_CN": "汇丰银行", "li_shi_qu_hua_2": null, "NAME_EN": "Hongkong and Shanghai Banking", "END_YR": null, "li_shi_qu_hua": null, "BEG_YR": null}}]}